[{"OBJECT_NAME":"WILDFIRE 5","OBJECT_ID":"2023-133N","EPOCH":"2026-03-09T15:05:21.111648","MEAN_MOTION":13.85448011,"ECCENTRICITY":0.0004913,"INCLINATION":81.0005,"RA_OF_ASC_NODE":103.3656,"ARG_OF_PERICENTER":278.9897,"MEAN_ANOMALY":81.0704,"EPHEMERIS_TYPE":0,"CLASSIFICATION_TYPE":"U","NORAD_CAT_ID":57769,"ELEMENT_SET_NO":999,"REV_AT_EPOCH":12724,"BSTAR":6.7604e-5,"MEAN_MOTION_DOT":8.8e-7,"MEAN_MOTION_DDOT":0},{"OBJECT_NAME":"COSMOS 1275 DEB","OBJECT_ID":"1981-053MW","EPOCH":"2026-02-28T00:59:01.242240","MEAN_MOTION":13.9083041,"ECCENTRICITY":0.00580563,"INCLINATION":83.1485,"RA_OF_ASC_NODE":280.2153,"ARG_OF_PERICENTER":139.6636,"MEAN_ANOMALY":220.8858,"EPHEMERIS_TYPE":0,"CLASSIFICATION_TYPE":"U","NORAD_CAT_ID":39936,"ELEMENT_SET_NO":999,"REV_AT_EPOCH":58348,"BSTAR":0.00085166799,"MEAN_MOTION_DOT":1.096e-5,"MEAN_MOTION_DDOT":0}]
